[{"OBJECT_NAME":"STARLINK-35153","OBJECT_ID":"2025-210D","EPOCH":"2026-03-09T22:28:59.933856","MEAN_MOTION":15.30185898,"ECCENTRICITY":0.00011971,"INCLINATION":53.1578,"RA_OF_ASC_NODE":305.5975,"ARG_OF_PERICENTER":68.2463,"MEAN_ANOMALY":291.8665,"EPHEMERIS_TYPE":0,"CLASSIFICATION_TYPE":"U","NORAD_CAT_ID":65625,"ELEMENT_SET_NO":999,"REV_AT_EPOCH":2769,"BSTAR":0.0007348496,"MEAN_MOTION_DOT":0.00021458,"MEAN_MOTION_DDOT":0},{"OBJECT_NAME":"COSMOS 2251 DEB","OBJECT_ID":"1993-036BTX","EPOCH":"2026-02-28T17:34:44.973408","MEAN_MOTION":15.25753352,"ECCENTRICITY":0.00216382,"INCLINATION":73.9681,"RA_OF_ASC_NODE":229.3494,"ARG_OF_PERICENTER":13.6287,"MEAN_ANOMALY":346.5492,"EPHEMERIS_TYPE":0,"CLASSIFICATION_TYPE":"U","NORAD_CAT_ID":38487,"ELEMENT_SET_NO":999,"REV_AT_EPOCH":67986,"BSTAR":0.0024802785,"MEAN_MOTION_DOT":0.00064261,"MEAN_MOTION_DDOT":0}]
